{
    "type": "FeatureCollection",
    "features": [
        {
            "type": "Feature",
            "geometry": {
                "type": "Polygon",
                "coordinates": [
                    [
                        [120.54913, 14.74075],
                        [120.54645, 14.74175],
                        [120.54295, 14.74406],
                        [120.52774, 14.75231],
                        [120.52336, 14.75266],
                        [120.52091, 14.7539],
                        [120.51902, 14.75645],
                        [120.51305, 14.7566],
                        [120.51141, 14.75598],
                        [120.50955, 14.75713],
                        [120.50595, 14.75674],
                        [120.50321, 14.75593],
                        [120.49891, 14.75598],
                        [120.49763, 14.75741],
                        [120.49477, 14.75453],
                        [120.4923, 14.75455],
                        [120.49109, 14.75362],
                        [120.48769, 14.75482],
                        [120.48633, 14.75288],
                        [120.48318, 14.75211],
                        [120.48335, 14.74952],
                        [120.48086, 14.74722],
                        [120.47692, 14.74619],
                        [120.47632, 14.74423],
                        [120.47089, 14.74309],
                        [120.4689, 14.7438],
                        [120.46714, 14.74266],
                        [120.46279, 14.74334],
                        [120.45948, 14.74217],
                        [120.45742, 14.743],
                        [120.45148, 14.74329],
                        [120.44751, 14.74102],
                        [120.44469, 14.74113],
                        [120.44361, 14.73882],
                        [120.44156, 14.7377],
                        [120.4398, 14.73842],
                        [120.43844, 14.73578],
                        [120.4361, 14.73463],
                        [120.43463, 14.73169],
                        [120.43, 14.73071],
                        [120.42613, 14.72623],
                        [120.4235, 14.72214],
                        [120.4179, 14.71665],
                        [120.40032, 14.7118],
                        [120.40299, 14.71032],
                        [120.40957, 14.70008],
                        [120.41424, 14.70097],
                        [120.42691, 14.70116],
                        [120.4479, 14.69965],
                        [120.46333, 14.69614],
                        [120.46746, 14.69544],
                        [120.46922, 14.69435],
                        [120.47166, 14.69141],
                        [120.47535, 14.69109],
                        [120.47669, 14.69271],
                        [120.47937, 14.69395],
                        [120.48073, 14.69273],
                        [120.48283, 14.69444],
                        [120.48621, 14.69302],
                        [120.4915, 14.69273],
                        [120.49495, 14.69404],
                        [120.49538, 14.69247],
                        [120.49836, 14.69227],
                        [120.4996, 14.69133],
                        [120.50253, 14.69329],
                        [120.50528, 14.6924],
                        [120.50893, 14.69374],
                        [120.50986, 14.69591],
                        [120.51602, 14.69828],
                        [120.51805, 14.69726],
                        [120.5314, 14.69824],
                        [120.53379, 14.69923],
                        [120.5351, 14.70225],
                        [120.541, 14.70193],
                        [120.54209, 14.69993],
                        [120.54445, 14.70152],
                        [120.54695, 14.70203],
                        [120.54979, 14.70423],
                        [120.5522, 14.70521],
                        [120.55337, 14.70603],
                        [120.55022, 14.71095],
                        [120.5488, 14.71624],
                        [120.54859, 14.7205],
                        [120.54658, 14.72636],
                        [120.54681, 14.72943],
                        [120.54803, 14.73697],
                        [120.54913, 14.74075]
                    ]
                ]
            },
            "properties": { "psgc": "0300801000", "municipality": "abucay" }
        },
        {
            "type": "Feature",
            "geometry": {
                "type": "Polygon",
                "coordinates": [
                    [
                        [120.40957, 14.70008],
                        [120.40299, 14.71032],
                        [120.40032, 14.7118],
                        [120.3981, 14.71061],
                        [120.37882, 14.67976],
                        [120.37482, 14.67446],
                        [120.37325, 14.67323],
                        [120.37135, 14.66987],
                        [120.36844, 14.66741],
                        [120.36676, 14.66461],
                        [120.36374, 14.65699],
                        [120.36183, 14.65408],
                        [120.36015, 14.64893],
                        [120.35668, 14.64669],
                        [120.35646, 14.6449],
                        [120.35422, 14.6421],
                        [120.35198, 14.64098],
                        [120.34806, 14.63639],
                        [120.34794, 14.63415],
                        [120.34635, 14.63187],
                        [120.34534, 14.62828],
                        [120.34731, 14.62728],
                        [120.34789, 14.62271],
                        [120.34746, 14.62114],
                        [120.34859, 14.61955],
                        [120.35296, 14.621],
                        [120.35471, 14.62369],
                        [120.35628, 14.62456],
                        [120.35819, 14.62308],
                        [120.36318, 14.62435],
                        [120.36348, 14.62544],
                        [120.36683, 14.62651],
                        [120.36804, 14.62577],
                        [120.3686, 14.62243],
                        [120.36826, 14.61925],
                        [120.37119, 14.61913],
                        [120.37425, 14.61679],
                        [120.37625, 14.61426],
                        [120.38001, 14.60749],
                        [120.38249, 14.60402],
                        [120.38591, 14.59719],
                        [120.38838, 14.59347],
                        [120.38992, 14.58882],
                        [120.39281, 14.58794],
                        [120.39347, 14.58374],
                        [120.39265, 14.58208],
                        [120.39393, 14.58119],
                        [120.39434, 14.57904],
                        [120.38987, 14.57388],
                        [120.38815, 14.57423],
                        [120.38447, 14.57389],
                        [120.38292, 14.56859],
                        [120.38398, 14.56584],
                        [120.38617, 14.56387],
                        [120.3875, 14.56436],
                        [120.38954, 14.56335],
                        [120.39086, 14.56151],
                        [120.39123, 14.55863],
                        [120.39039, 14.55425],
                        [120.38871, 14.55184],
                        [120.38617, 14.55112],
                        [120.38367, 14.55128],
                        [120.38165, 14.54828],
                        [120.38762, 14.54723],
                        [120.38974, 14.54581],
                        [120.39041, 14.54354],
                        [120.38882, 14.54243],
                        [120.38965, 14.54114],
                        [120.38999, 14.53789],
                        [120.388, 14.53402],
                        [120.38638, 14.53348],
                        [120.38147, 14.53327],
                        [120.38042, 14.53149],
                        [120.37474, 14.52469],
                        [120.37496, 14.52224],
                        [120.37884, 14.51939],
                        [120.38112, 14.51666],
                        [120.38144, 14.51099],
                        [120.37885, 14.50874],
                        [120.37837, 14.50652],
                        [120.3795, 14.50313],
                        [120.37737, 14.49905],
                        [120.38044, 14.49752],
                        [120.38085, 14.49557],
                        [120.38347, 14.49573],
                        [120.38405, 14.49289],
                        [120.3853, 14.49094],
                        [120.38738, 14.49093],
                        [120.38869, 14.48767],
                        [120.38491, 14.48514],
                        [120.38682, 14.48407],
                        [120.388, 14.48184],
                        [120.38953, 14.48142],
                        [120.38979, 14.4789],
                        [120.38795, 14.47724],
                        [120.3863, 14.47732],
                        [120.38171, 14.47557],
                        [120.3824, 14.47287],
                        [120.38564, 14.46955],
                        [120.3919, 14.47083],
                        [120.39355, 14.46982],
                        [120.39369, 14.46795],
                        [120.39183, 14.46516],
                        [120.46218, 14.52876],
                        [120.47633, 14.53914],
                        [120.47679, 14.54193],
                        [120.47889, 14.54365],
                        [120.48067, 14.5473],
                        [120.4797, 14.54873],
                        [120.47967, 14.55094],
                        [120.47846, 14.55231],
                        [120.47685, 14.55608],
                        [120.47706, 14.55845],
                        [120.47225, 14.56182],
                        [120.46506, 14.56907],
                        [120.46426, 14.57353],
                        [120.465, 14.57612],
                        [120.46416, 14.57836],
                        [120.46168, 14.5815],
                        [120.4619, 14.5887],
                        [120.46347, 14.59456],
                        [120.46261, 14.60006],
                        [120.46406, 14.60364],
                        [120.46578, 14.60486],
                        [120.46236, 14.60643],
                        [120.46179, 14.60896],
                        [120.46035, 14.61112],
                        [120.46026, 14.61437],
                        [120.45893, 14.61655],
                        [120.45739, 14.6176],
                        [120.45973, 14.62756],
                        [120.4613, 14.62927],
                        [120.46368, 14.63004],
                        [120.46101, 14.63184],
                        [120.45995, 14.63397],
                        [120.45774, 14.63369],
                        [120.45555, 14.6349],
                        [120.45348, 14.63468],
                        [120.45169, 14.63645],
                        [120.44946, 14.63613],
                        [120.44882, 14.63754],
                        [120.44585, 14.64],
                        [120.44264, 14.64565],
                        [120.44015, 14.64775],
                        [120.44065, 14.65017],
                        [120.43818, 14.65204],
                        [120.43414, 14.65998],
                        [120.43211, 14.66153],
                        [120.4317, 14.66309],
                        [120.42107, 14.68215],
                        [120.40957, 14.70008]
                    ]
                ]
            },
            "properties": { "psgc": "0300802000", "municipality": "bagac" }
        },
        {
            "type": "Feature",
            "geometry": {
                "type": "Polygon",
                "coordinates": [
                    [
                        [120.55912, 14.68898],
                        [120.56143, 14.69151],
                        [120.56698, 14.69442],
                        [120.56427, 14.69641],
                        [120.56288, 14.69873],
                        [120.5621, 14.70158],
                        [120.55765, 14.7019],
                        [120.55728, 14.70299],
                        [120.55384, 14.70396],
                        [120.5522, 14.70521],
                        [120.54979, 14.70423],
                        [120.54695, 14.70203],
                        [120.54445, 14.70152],
                        [120.54209, 14.69993],
                        [120.541, 14.70193],
                        [120.5351, 14.70225],
                        [120.53379, 14.69923],
                        [120.5314, 14.69824],
                        [120.51805, 14.69726],
                        [120.51602, 14.69828],
                        [120.50986, 14.69591],
                        [120.50893, 14.69374],
                        [120.50528, 14.6924],
                        [120.50253, 14.69329],
                        [120.4996, 14.69133],
                        [120.49836, 14.69227],
                        [120.49538, 14.69247],
                        [120.49495, 14.69404],
                        [120.4915, 14.69273],
                        [120.48621, 14.69302],
                        [120.48283, 14.69444],
                        [120.48073, 14.69273],
                        [120.47937, 14.69395],
                        [120.47669, 14.69271],
                        [120.47535, 14.69109],
                        [120.47166, 14.69141],
                        [120.46922, 14.69435],
                        [120.46746, 14.69544],
                        [120.46333, 14.69614],
                        [120.4479, 14.69965],
                        [120.42691, 14.70116],
                        [120.41424, 14.70097],
                        [120.40957, 14.70008],
                        [120.42107, 14.68215],
                        [120.4317, 14.66309],
                        [120.43211, 14.66153],
                        [120.43414, 14.65998],
                        [120.43818, 14.65204],
                        [120.44065, 14.65017],
                        [120.44015, 14.64775],
                        [120.44264, 14.64565],
                        [120.44585, 14.64],
                        [120.44882, 14.63754],
                        [120.44946, 14.63613],
                        [120.45169, 14.63645],
                        [120.45348, 14.63468],
                        [120.45555, 14.6349],
                        [120.45774, 14.63369],
                        [120.45995, 14.63397],
                        [120.46101, 14.63184],
                        [120.46368, 14.63004],
                        [120.4613, 14.62927],
                        [120.45973, 14.62756],
                        [120.45739, 14.6176],
                        [120.45893, 14.61655],
                        [120.46026, 14.61437],
                        [120.46035, 14.61112],
                        [120.46179, 14.60896],
                        [120.46236, 14.60643],
                        [120.46578, 14.60486],
                        [120.46406, 14.60364],
                        [120.46904, 14.6016],
                        [120.47128, 14.60496],
                        [120.47358, 14.60716],
                        [120.47282, 14.60875],
                        [120.47266, 14.61161],
                        [120.4733, 14.61405],
                        [120.4722, 14.61549],
                        [120.47237, 14.61765],
                        [120.47349, 14.61885],
                        [120.47246, 14.62297],
                        [120.47334, 14.62672],
                        [120.47654, 14.63115],
                        [120.47677, 14.63249],
                        [120.4793, 14.63618],
                        [120.48359, 14.63836],
                        [120.48504, 14.63699],
                        [120.48959, 14.63968],
                        [120.49819, 14.63983],
                        [120.50175, 14.63714],
                        [120.50503, 14.63695],
                        [120.50705, 14.63418],
                        [120.51063, 14.63743],
                        [120.51254, 14.63808],
                        [120.51347, 14.63679],
                        [120.51664, 14.63541],
                        [120.51791, 14.63592],
                        [120.52142, 14.63552],
                        [120.52352, 14.63628],
                        [120.52704, 14.63863],
                        [120.53006, 14.63873],
                        [120.53318, 14.64373],
                        [120.53622, 14.6445],
                        [120.53669, 14.64811],
                        [120.53462, 14.65111],
                        [120.53744, 14.6526],
                        [120.53769, 14.65387],
                        [120.53639, 14.65795],
                        [120.53775, 14.66061],
                        [120.541, 14.66049],
                        [120.54373, 14.66194],
                        [120.54776, 14.66303],
                        [120.5495, 14.66723],
                        [120.54911, 14.66885],
                        [120.54726, 14.67078],
                        [120.54663, 14.67279],
                        [120.54396, 14.67529],
                        [120.54446, 14.67689],
                        [120.54867, 14.68008],
                        [120.55036, 14.68586],
                        [120.55677, 14.68668],
                        [120.55912, 14.68898]
                    ]
                ]
            },
            "properties": { "psgc": "0300803000", "municipality": "balanga" }
        },
        {
            "type": "Feature",
            "geometry": {
                "type": "Polygon",
                "coordinates": [
                    [
                        [120.47935, 14.89079],
                        [120.47888, 14.89393],
                        [120.47958, 14.89641],
                        [120.48647, 14.90413],
                        [120.48603, 14.90647],
                        [120.48639, 14.90896],
                        [120.48383, 14.91352],
                        [120.48101, 14.91506],
                        [120.47927, 14.91734],
                        [120.47641, 14.91962],
                        [120.47357, 14.92086],
                        [120.4674, 14.92276],
                        [120.46127, 14.92127],
                        [120.4624, 14.91804],
                        [120.46094, 14.91751],
                        [120.45541, 14.91922],
                        [120.45363, 14.91892],
                        [120.4526, 14.91758],
                        [120.44813, 14.91908],
                        [120.44634, 14.91858],
                        [120.44389, 14.92027],
                        [120.43973, 14.91666],
                        [120.43361, 14.9121],
                        [120.43145, 14.91239],
                        [120.42659, 14.91505],
                        [120.42281, 14.91447],
                        [120.41849, 14.91073],
                        [120.41819, 14.9099],
                        [120.41367, 14.90492],
                        [120.41246, 14.90296],
                        [120.41187, 14.9003],
                        [120.40798, 14.89978],
                        [120.40796, 14.89552],
                        [120.4061, 14.89085],
                        [120.40765, 14.88897],
                        [120.40666, 14.88571],
                        [120.39973, 14.88423],
                        [120.39872, 14.88303],
                        [120.39489, 14.881],
                        [120.39105, 14.87703],
                        [120.38866, 14.87536],
                        [120.38033, 14.87204],
                        [120.37718, 14.87331],
                        [120.37415, 14.87198],
                        [120.37167, 14.87223],
                        [120.36852, 14.87027],
                        [120.36364, 14.86949],
                        [120.34907, 14.86274],
                        [120.34119, 14.8573],
                        [120.34063, 14.85455],
                        [120.34341, 14.85167],
                        [120.34016, 14.84997],
                        [120.33965, 14.84701],
                        [120.33748, 14.84666],
                        [120.33768, 14.84479],
                        [120.33637, 14.84306],
                        [120.33906, 14.84149],
                        [120.34113, 14.8417],
                        [120.34181, 14.8441],
                        [120.34441, 14.84574],
                        [120.34594, 14.84508],
                        [120.34835, 14.84599],
                        [120.34985, 14.84427],
                        [120.35372, 14.84359],
                        [120.35567, 14.84377],
                        [120.35879, 14.84235],
                        [120.35971, 14.84448],
                        [120.36274, 14.84633],
                        [120.36509, 14.84612],
                        [120.3669, 14.85023],
                        [120.36915, 14.85033],
                        [120.37075, 14.85284],
                        [120.37292, 14.85071],
                        [120.37834, 14.85087],
                        [120.38109, 14.85189],
                        [120.38224, 14.84968],
                        [120.38567, 14.84963],
                        [120.38674, 14.84559],
                        [120.38905, 14.84481],
                        [120.39122, 14.84829],
                        [120.39581, 14.84692],
                        [120.39775, 14.84706],
                        [120.40078, 14.84533],
                        [120.40422, 14.84519],
                        [120.40634, 14.8434],
                        [120.40793, 14.84418],
                        [120.41136, 14.84456],
                        [120.41361, 14.8466],
                        [120.41509, 14.84451],
                        [120.41805, 14.8453],
                        [120.42113, 14.84435],
                        [120.42496, 14.84623],
                        [120.42706, 14.84605],
                        [120.42995, 14.84414],
                        [120.43077, 14.84814],
                        [120.43278, 14.84838],
                        [120.43251, 14.8526],
                        [120.43569, 14.85629],
                        [120.43682, 14.85507],
                        [120.4411, 14.85904],
                        [120.44256, 14.85845],
                        [120.44334, 14.85639],
                        [120.44556, 14.85568],
                        [120.445, 14.85186],
                        [120.44648, 14.85063],
                        [120.45169, 14.85069],
                        [120.45338, 14.85149],
                        [120.45774, 14.86195],
                        [120.46041, 14.85942],
                        [120.46187, 14.86048],
                        [120.46482, 14.86012],
                        [120.46687, 14.86097],
                        [120.46948, 14.85723],
                        [120.47069, 14.85659],
                        [120.47142, 14.854],
                        [120.47388, 14.85257],
                        [120.47856, 14.85123],
                        [120.4813, 14.84953],
                        [120.48593, 14.84744],
                        [120.48742, 14.84568],
                        [120.48666, 14.84356],
                        [120.48895, 14.84172],
                        [120.49231, 14.84256],
                        [120.49361, 14.84465],
                        [120.49319, 14.84635],
                        [120.49071, 14.85007],
                        [120.49086, 14.85113],
                        [120.48796, 14.85435],
                        [120.4836, 14.85718],
                        [120.4812, 14.85803],
                        [120.47977, 14.86148],
                        [120.47769, 14.86055],
                        [120.47542, 14.86368],
                        [120.47696, 14.86775],
                        [120.47581, 14.87032],
                        [120.4731, 14.87336],
                        [120.47492, 14.87843],
                        [120.47372, 14.8822],
                        [120.47524, 14.88477],
                        [120.47499, 14.88881],
                        [120.47593, 14.88988],
                        [120.47883, 14.88997],
                        [120.47935, 14.89079]
                    ]
                ]
            },
            "properties": {
                "psgc": "0300804000",
                "municipality": "dinalupihan"
            }
        },
        {
            "type": "Feature",
            "geometry": {
                "type": "Polygon",
                "coordinates": [
                    [
                        [120.52996, 14.83246],
                        [120.52921, 14.83464],
                        [120.52487, 14.8402],
                        [120.52525, 14.8427],
                        [120.52451, 14.84365],
                        [120.52491, 14.84635],
                        [120.52379, 14.84911],
                        [120.5206, 14.85345],
                        [120.51807, 14.85997],
                        [120.5121, 14.86343],
                        [120.50997, 14.86242],
                        [120.50599, 14.86166],
                        [120.5, 14.87025],
                        [120.49755, 14.87242],
                        [120.49659, 14.87645],
                        [120.49458, 14.87949],
                        [120.49149, 14.87938],
                        [120.49032, 14.88095],
                        [120.49299, 14.88501],
                        [120.49206, 14.88898],
                        [120.49086, 14.88988],
                        [120.48717, 14.88941],
                        [120.47935, 14.89079],
                        [120.47883, 14.88997],
                        [120.47593, 14.88988],
                        [120.47499, 14.88881],
                        [120.47524, 14.88477],
                        [120.47372, 14.8822],
                        [120.47492, 14.87843],
                        [120.4731, 14.87336],
                        [120.47581, 14.87032],
                        [120.47696, 14.86775],
                        [120.47542, 14.86368],
                        [120.47769, 14.86055],
                        [120.47977, 14.86148],
                        [120.4812, 14.85803],
                        [120.4836, 14.85718],
                        [120.48796, 14.85435],
                        [120.49086, 14.85113],
                        [120.49071, 14.85007],
                        [120.49319, 14.84635],
                        [120.49361, 14.84465],
                        [120.49231, 14.84256],
                        [120.48895, 14.84172],
                        [120.48666, 14.84356],
                        [120.48742, 14.84568],
                        [120.48593, 14.84744],
                        [120.4813, 14.84953],
                        [120.47856, 14.85123],
                        [120.47388, 14.85257],
                        [120.47142, 14.854],
                        [120.47069, 14.85659],
                        [120.46948, 14.85723],
                        [120.46687, 14.86097],
                        [120.46482, 14.86012],
                        [120.46187, 14.86048],
                        [120.46041, 14.85942],
                        [120.45774, 14.86195],
                        [120.45338, 14.85149],
                        [120.45169, 14.85069],
                        [120.44648, 14.85063],
                        [120.445, 14.85186],
                        [120.44556, 14.85568],
                        [120.44334, 14.85639],
                        [120.44256, 14.85845],
                        [120.4411, 14.85904],
                        [120.43682, 14.85507],
                        [120.43569, 14.85629],
                        [120.43251, 14.8526],
                        [120.43278, 14.84838],
                        [120.43077, 14.84814],
                        [120.42995, 14.84414],
                        [120.42706, 14.84605],
                        [120.42496, 14.84623],
                        [120.42113, 14.84435],
                        [120.41805, 14.8453],
                        [120.41509, 14.84451],
                        [120.41361, 14.8466],
                        [120.41136, 14.84456],
                        [120.40793, 14.84418],
                        [120.40634, 14.8434],
                        [120.40422, 14.84519],
                        [120.40078, 14.84533],
                        [120.39775, 14.84706],
                        [120.39581, 14.84692],
                        [120.39122, 14.84829],
                        [120.38905, 14.84481],
                        [120.38674, 14.84559],
                        [120.38567, 14.84963],
                        [120.38224, 14.84968],
                        [120.38109, 14.85189],
                        [120.37834, 14.85087],
                        [120.37292, 14.85071],
                        [120.37075, 14.85284],
                        [120.36915, 14.85033],
                        [120.3669, 14.85023],
                        [120.36509, 14.84612],
                        [120.36274, 14.84633],
                        [120.35971, 14.84448],
                        [120.35879, 14.84235],
                        [120.35567, 14.84377],
                        [120.35372, 14.84359],
                        [120.34985, 14.84427],
                        [120.34835, 14.84599],
                        [120.34594, 14.84508],
                        [120.34441, 14.84574],
                        [120.34181, 14.8441],
                        [120.34113, 14.8417],
                        [120.33906, 14.84149],
                        [120.33917, 14.83698],
                        [120.34064, 14.835],
                        [120.34264, 14.83371],
                        [120.34186, 14.83212],
                        [120.34364, 14.83136],
                        [120.34474, 14.82671],
                        [120.34577, 14.82567],
                        [120.34477, 14.82367],
                        [120.34598, 14.82237],
                        [120.34376, 14.821],
                        [120.34503, 14.81715],
                        [120.34342, 14.81659],
                        [120.34021, 14.81782],
                        [120.3383, 14.8167],
                        [120.33926, 14.81329],
                        [120.34146, 14.81317],
                        [120.34115, 14.80806],
                        [120.34289, 14.80452],
                        [120.34675, 14.80448],
                        [120.3492, 14.80661],
                        [120.35227, 14.80689],
                        [120.35315, 14.80582],
                        [120.35537, 14.80017],
                        [120.35412, 14.79918],
                        [120.35396, 14.79714],
                        [120.35649, 14.79728],
                        [120.35876, 14.79392],
                        [120.36109, 14.79293],
                        [120.36252, 14.79101],
                        [120.362, 14.78937],
                        [120.36198, 14.78382],
                        [120.36065, 14.78045],
                        [120.36058, 14.7776],
                        [120.36441, 14.77816],
                        [120.36656, 14.77709],
                        [120.36901, 14.77218],
                        [120.36947, 14.77003],
                        [120.373, 14.76466],
                        [120.37392, 14.76267],
                        [120.37745, 14.75822],
                        [120.38144, 14.74487],
                        [120.38343, 14.74257],
                        [120.3865, 14.74196],
                        [120.38987, 14.74365],
                        [120.39561, 14.74455],
                        [120.40031, 14.74899],
                        [120.40042, 14.75042],
                        [120.40213, 14.75136],
                        [120.4047, 14.75115],
                        [120.40752, 14.75425],
                        [120.41198, 14.75726],
                        [120.41603, 14.75686],
                        [120.4171, 14.75895],
                        [120.41948, 14.76105],
                        [120.42471, 14.76147],
                        [120.42776, 14.7603],
                        [120.43029, 14.76204],
                        [120.43065, 14.76531],
                        [120.43268, 14.76777],
                        [120.43259, 14.77035],
                        [120.43569, 14.77218],
                        [120.4352, 14.77521],
                        [120.43798, 14.77694],
                        [120.43775, 14.77908],
                        [120.43858, 14.78091],
                        [120.44031, 14.78189],
                        [120.44141, 14.7838],
                        [120.44105, 14.78867],
                        [120.44393, 14.79184],
                        [120.44429, 14.79545],
                        [120.44706, 14.79752],
                        [120.44762, 14.79978],
                        [120.45137, 14.80095],
                        [120.45192, 14.80361],
                        [120.45404, 14.80627],
                        [120.46144, 14.80603],
                        [120.47185, 14.80538],
                        [120.48266, 14.80708],
                        [120.48554, 14.80936],
                        [120.48825, 14.80898],
                        [120.4883, 14.81203],
                        [120.49296, 14.81262],
                        [120.49373, 14.81512],
                        [120.5005, 14.81212],
                        [120.50365, 14.81211],
                        [120.50512, 14.81591],
                        [120.50748, 14.81719],
                        [120.50904, 14.82018],
                        [120.51275, 14.82055],
                        [120.51611, 14.82159],
                        [120.52003, 14.82339],
                        [120.52733, 14.82899],
                        [120.52881, 14.83177],
                        [120.52996, 14.83246]
                    ]
                ]
            },
            "properties": { "psgc": "0300805000", "municipality": "hermosa" }
        },
        {
            "type": "Feature",
            "geometry": {
                "type": "Polygon",
                "coordinates": [
                    [
                        [120.61093, 14.51141],
                        [120.60857, 14.51791],
                        [120.60965, 14.52003],
                        [120.60845, 14.52614],
                        [120.60773, 14.52824],
                        [120.60601, 14.52864],
                        [120.60682, 14.5312],
                        [120.60825, 14.53149],
                        [120.60842, 14.53355],
                        [120.60573, 14.53424],
                        [120.60453, 14.53609],
                        [120.60085, 14.53864],
                        [120.60086, 14.54099],
                        [120.60204, 14.54177],
                        [120.60326, 14.54485],
                        [120.60023, 14.54631],
                        [120.5991, 14.55015],
                        [120.59912, 14.55676],
                        [120.60015, 14.56039],
                        [120.59824, 14.56439],
                        [120.59748, 14.56468],
                        [120.5968, 14.56878],
                        [120.59518, 14.57004],
                        [120.59441, 14.57202],
                        [120.59397, 14.57697],
                        [120.59273, 14.5778],
                        [120.59268, 14.58129],
                        [120.57376, 14.57778],
                        [120.5686, 14.57542],
                        [120.56584, 14.57528],
                        [120.56398, 14.57205],
                        [120.56368, 14.5696],
                        [120.56207, 14.56777],
                        [120.56029, 14.56816],
                        [120.5577, 14.56711],
                        [120.55744, 14.56426],
                        [120.55103, 14.56233],
                        [120.55182, 14.55899],
                        [120.54382, 14.55595],
                        [120.53492, 14.55478],
                        [120.53228, 14.55307],
                        [120.52609, 14.55064],
                        [120.52362, 14.54831],
                        [120.52223, 14.54609],
                        [120.51726, 14.5418],
                        [120.49825, 14.54073],
                        [120.49358, 14.53992],
                        [120.48051, 14.53999],
                        [120.47633, 14.53914],
                        [120.5299, 14.52041],
                        [120.53263, 14.51652],
                        [120.53547, 14.51615],
                        [120.53585, 14.5135],
                        [120.53782, 14.51235],
                        [120.53988, 14.51247],
                        [120.54762, 14.51119],
                        [120.55402, 14.51146],
                        [120.55854, 14.51014],
                        [120.56026, 14.50871],
                        [120.56006, 14.5073],
                        [120.5613, 14.50475],
                        [120.56385, 14.50509],
                        [120.56443, 14.50356],
                        [120.56747, 14.50329],
                        [120.5706, 14.50377],
                        [120.57468, 14.50202],
                        [120.57883, 14.50263],
                        [120.58151, 14.50137],
                        [120.58261, 14.50323],
                        [120.58413, 14.50393],
                        [120.58588, 14.50333],
                        [120.58833, 14.50691],
                        [120.59152, 14.50867],
                        [120.595, 14.50859],
                        [120.59836, 14.50908],
                        [120.60005, 14.51002],
                        [120.60649, 14.51027],
                        [120.60704, 14.50971],
                        [120.61093, 14.51141]
                    ]
                ]
            },
            "properties": { "psgc": "0300806000", "municipality": "limay" }
        },
        {
            "type": "Feature",
            "geometry": {
                "type": "Polygon",
                "coordinates": [
                    [
                        [120.61093, 14.51141],
                        [120.60704, 14.50971],
                        [120.60649, 14.51027],
                        [120.60005, 14.51002],
                        [120.59836, 14.50908],
                        [120.595, 14.50859],
                        [120.59152, 14.50867],
                        [120.58833, 14.50691],
                        [120.58588, 14.50333],
                        [120.58413, 14.50393],
                        [120.58261, 14.50323],
                        [120.58151, 14.50137],
                        [120.57883, 14.50263],
                        [120.57468, 14.50202],
                        [120.5706, 14.50377],
                        [120.56747, 14.50329],
                        [120.56443, 14.50356],
                        [120.56385, 14.50509],
                        [120.5613, 14.50475],
                        [120.56006, 14.5073],
                        [120.56026, 14.50871],
                        [120.55854, 14.51014],
                        [120.55402, 14.51146],
                        [120.54762, 14.51119],
                        [120.53988, 14.51247],
                        [120.53782, 14.51235],
                        [120.53585, 14.5135],
                        [120.53547, 14.51615],
                        [120.53263, 14.51652],
                        [120.5299, 14.52041],
                        [120.47633, 14.53914],
                        [120.46218, 14.52876],
                        [120.39183, 14.46516],
                        [120.38973, 14.46409],
                        [120.38861, 14.46243],
                        [120.38854, 14.46007],
                        [120.39223, 14.45919],
                        [120.39282, 14.45766],
                        [120.3964, 14.45889],
                        [120.39897, 14.45795],
                        [120.40162, 14.45794],
                        [120.40002, 14.45399],
                        [120.40212, 14.45373],
                        [120.40493, 14.45638],
                        [120.40818, 14.455],
                        [120.41261, 14.45584],
                        [120.41422, 14.45478],
                        [120.41467, 14.45166],
                        [120.41657, 14.4523],
                        [120.41861, 14.45415],
                        [120.42188, 14.45288],
                        [120.42318, 14.45172],
                        [120.421, 14.44592],
                        [120.42494, 14.44072],
                        [120.42681, 14.44213],
                        [120.42821, 14.44141],
                        [120.42957, 14.44359],
                        [120.42968, 14.44593],
                        [120.43113, 14.44694],
                        [120.43586, 14.44671],
                        [120.43711, 14.44605],
                        [120.43783, 14.44254],
                        [120.43907, 14.44116],
                        [120.4406, 14.44127],
                        [120.44478, 14.44635],
                        [120.44685, 14.44592],
                        [120.44775, 14.44149],
                        [120.45118, 14.44205],
                        [120.4565, 14.43853],
                        [120.45538, 14.43741],
                        [120.45592, 14.43493],
                        [120.4589, 14.43482],
                        [120.45773, 14.43013],
                        [120.45831, 14.4269],
                        [120.45945, 14.42719],
                        [120.46109, 14.42502],
                        [120.4631, 14.42461],
                        [120.46404, 14.42602],
                        [120.46682, 14.4269],
                        [120.46758, 14.42502],
                        [120.46613, 14.42364],
                        [120.46536, 14.42128],
                        [120.46366, 14.42036],
                        [120.46501, 14.41845],
                        [120.46652, 14.41848],
                        [120.46716, 14.42013],
                        [120.46978, 14.42191],
                        [120.47229, 14.42159],
                        [120.47086, 14.41697],
                        [120.47394, 14.41863],
                        [120.47619, 14.41802],
                        [120.47763, 14.41984],
                        [120.47987, 14.41915],
                        [120.47948, 14.41618],
                        [120.47815, 14.41453],
                        [120.47657, 14.41033],
                        [120.47912, 14.41203],
                        [120.48152, 14.41471],
                        [120.48245, 14.41668],
                        [120.48431, 14.41697],
                        [120.48589, 14.41579],
                        [120.48947, 14.41639],
                        [120.4927, 14.41544],
                        [120.49446, 14.41336],
                        [120.49427, 14.41098],
                        [120.49628, 14.40872],
                        [120.50017, 14.40805],
                        [120.50078, 14.41058],
                        [120.50015, 14.41158],
                        [120.49648, 14.41406],
                        [120.49493, 14.41403],
                        [120.49346, 14.41537],
                        [120.49303, 14.41825],
                        [120.49063, 14.42151],
                        [120.48706, 14.42324],
                        [120.48677, 14.42519],
                        [120.48478, 14.42698],
                        [120.48453, 14.42913],
                        [120.4864, 14.43345],
                        [120.48731, 14.43319],
                        [120.49022, 14.43493],
                        [120.49596, 14.43689],
                        [120.49663, 14.43562],
                        [120.49967, 14.43538],
                        [120.50321, 14.43586],
                        [120.50669, 14.43575],
                        [120.50847, 14.43332],
                        [120.5105, 14.43209],
                        [120.51149, 14.42956],
                        [120.51368, 14.42719],
                        [120.51247, 14.42564],
                        [120.51785, 14.42462],
                        [120.51972, 14.42266],
                        [120.52188, 14.4242],
                        [120.52187, 14.42604],
                        [120.52018, 14.42774],
                        [120.52242, 14.42935],
                        [120.52431, 14.42831],
                        [120.52908, 14.42863],
                        [120.5319, 14.42951],
                        [120.53291, 14.42839],
                        [120.5316, 14.4241],
                        [120.53467, 14.42264],
                        [120.54005, 14.42116],
                        [120.54425, 14.42148],
                        [120.54724, 14.42341],
                        [120.54811, 14.42249],
                        [120.55134, 14.42203],
                        [120.55402, 14.42237],
                        [120.55646, 14.42403],
                        [120.55922, 14.42467],
                        [120.56237, 14.42328],
                        [120.56452, 14.42425],
                        [120.56348, 14.42603],
                        [120.56675, 14.42756],
                        [120.56649, 14.42988],
                        [120.56761, 14.43071],
                        [120.56949, 14.4301],
                        [120.57099, 14.43258],
                        [120.57281, 14.43187],
                        [120.57637, 14.43196],
                        [120.57762, 14.43434],
                        [120.58005, 14.43555],
                        [120.57996, 14.43817],
                        [120.58111, 14.44009],
                        [120.58461, 14.44099],
                        [120.58566, 14.44392],
                        [120.58761, 14.44496],
                        [120.58827, 14.44774],
                        [120.58938, 14.44896],
                        [120.59242, 14.45043],
                        [120.59421, 14.45375],
                        [120.59478, 14.45707],
                        [120.59699, 14.45867],
                        [120.59931, 14.45895],
                        [120.60237, 14.46189],
                        [120.603, 14.46575],
                        [120.60437, 14.46844],
                        [120.60693, 14.46895],
                        [120.60725, 14.47092],
                        [120.6039, 14.47141],
                        [120.60472, 14.47614],
                        [120.60598, 14.47792],
                        [120.60872, 14.47845],
                        [120.60907, 14.48296],
                        [120.60971, 14.48527],
                        [120.60858, 14.48642],
                        [120.60926, 14.48998],
                        [120.61002, 14.50166],
                        [120.61079, 14.50469],
                        [120.61093, 14.51141]
                    ]
                ]
            },
            "properties": { "psgc": "0300807000", "municipality": "mariveles" }
        },
        {
            "type": "Feature",
            "geometry": {
                "type": "Polygon",
                "coordinates": [
                    [
                        [120.39561, 14.74455],
                        [120.38987, 14.74365],
                        [120.3865, 14.74196],
                        [120.38343, 14.74257],
                        [120.38144, 14.74487],
                        [120.37745, 14.75822],
                        [120.37392, 14.76267],
                        [120.373, 14.76466],
                        [120.36947, 14.77003],
                        [120.36901, 14.77218],
                        [120.36656, 14.77709],
                        [120.36441, 14.77816],
                        [120.36058, 14.7776],
                        [120.35935, 14.77663],
                        [120.3549, 14.77632],
                        [120.34252, 14.77264],
                        [120.3421, 14.7719],
                        [120.33745, 14.76919],
                        [120.33345, 14.76801],
                        [120.3313, 14.7679],
                        [120.32548, 14.76374],
                        [120.32365, 14.76071],
                        [120.32044, 14.75694],
                        [120.31688, 14.75516],
                        [120.3095, 14.7531],
                        [120.30569, 14.75114],
                        [120.29692, 14.74961],
                        [120.29286, 14.7516],
                        [120.28874, 14.75479],
                        [120.28513, 14.75555],
                        [120.28273, 14.755],
                        [120.28073, 14.75353],
                        [120.28078, 14.75157],
                        [120.28311, 14.7503],
                        [120.28351, 14.74875],
                        [120.2873, 14.74908],
                        [120.29074, 14.74771],
                        [120.28701, 14.74381],
                        [120.28552, 14.74323],
                        [120.28467, 14.74151],
                        [120.28129, 14.74019],
                        [120.27955, 14.73885],
                        [120.27911, 14.73719],
                        [120.27951, 14.73404],
                        [120.27617, 14.73163],
                        [120.27373, 14.73198],
                        [120.2723, 14.73471],
                        [120.26802, 14.73522],
                        [120.26384, 14.73473],
                        [120.25839, 14.73563],
                        [120.25485, 14.73467],
                        [120.25585, 14.73108],
                        [120.2545, 14.72915],
                        [120.25152, 14.72767],
                        [120.25028, 14.72627],
                        [120.25261, 14.72412],
                        [120.25528, 14.72386],
                        [120.2556, 14.72168],
                        [120.25365, 14.71932],
                        [120.25143, 14.7185],
                        [120.24935, 14.71495],
                        [120.25156, 14.71264],
                        [120.25191, 14.71086],
                        [120.24953, 14.70675],
                        [120.24868, 14.70246],
                        [120.24864, 14.69943],
                        [120.24963, 14.69662],
                        [120.24818, 14.69229],
                        [120.25108, 14.68806],
                        [120.25293, 14.68434],
                        [120.25453, 14.68304],
                        [120.25685, 14.6824],
                        [120.26084, 14.67989],
                        [120.26112, 14.67869],
                        [120.26429, 14.67442],
                        [120.26517, 14.67224],
                        [120.26543, 14.66899],
                        [120.26762, 14.66801],
                        [120.27057, 14.66978],
                        [120.27433, 14.67021],
                        [120.27698, 14.66908],
                        [120.28164, 14.66589],
                        [120.2879, 14.66041],
                        [120.29233, 14.65553],
                        [120.2941, 14.65311],
                        [120.29638, 14.64887],
                        [120.29959, 14.64555],
                        [120.30181, 14.64205],
                        [120.30272, 14.6382],
                        [120.30506, 14.63691],
                        [120.30828, 14.63906],
                        [120.31165, 14.64056],
                        [120.31267, 14.63988],
                        [120.31301, 14.63417],
                        [120.31076, 14.62971],
                        [120.31113, 14.62694],
                        [120.31316, 14.6259],
                        [120.31488, 14.62612],
                        [120.31751, 14.62927],
                        [120.32081, 14.63197],
                        [120.32306, 14.63095],
                        [120.32878, 14.63624],
                        [120.33172, 14.63626],
                        [120.33393, 14.6353],
                        [120.33542, 14.63204],
                        [120.33734, 14.63139],
                        [120.33899, 14.62971],
                        [120.34133, 14.63042],
                        [120.34351, 14.63257],
                        [120.34635, 14.63187],
                        [120.34794, 14.63415],
                        [120.34806, 14.63639],
                        [120.35198, 14.64098],
                        [120.35422, 14.6421],
                        [120.35646, 14.6449],
                        [120.35668, 14.64669],
                        [120.36015, 14.64893],
                        [120.36183, 14.65408],
                        [120.36374, 14.65699],
                        [120.36676, 14.66461],
                        [120.36844, 14.66741],
                        [120.37135, 14.66987],
                        [120.37325, 14.67323],
                        [120.37482, 14.67446],
                        [120.37882, 14.67976],
                        [120.3981, 14.71061],
                        [120.40032, 14.7118],
                        [120.40874, 14.72629],
                        [120.40978, 14.72897],
                        [120.4127, 14.732],
                        [120.41713, 14.73902],
                        [120.41998, 14.74074],
                        [120.42257, 14.74343],
                        [120.41797, 14.74319],
                        [120.41549, 14.74213],
                        [120.41176, 14.74196],
                        [120.40859, 14.74427],
                        [120.39561, 14.74455]
                    ]
                ]
            },
            "properties": { "psgc": "0300808000", "municipality": "morong" }
        },
        {
            "type": "Feature",
            "geometry": {
                "type": "Polygon",
                "coordinates": [
                    [
                        [120.54723, 14.78617],
                        [120.54669, 14.79044],
                        [120.54869, 14.79009],
                        [120.54866, 14.79201],
                        [120.5472, 14.79398],
                        [120.54666, 14.79695],
                        [120.54223, 14.80368],
                        [120.53881, 14.80668],
                        [120.53883, 14.80956],
                        [120.54131, 14.81492],
                        [120.54243, 14.81473],
                        [120.54168, 14.81179],
                        [120.54279, 14.80872],
                        [120.543, 14.80386],
                        [120.54599, 14.8001],
                        [120.55084, 14.79531],
                        [120.55253, 14.79294],
                        [120.55408, 14.79336],
                        [120.55206, 14.796],
                        [120.55332, 14.79689],
                        [120.55335, 14.79978],
                        [120.55618, 14.7996],
                        [120.55633, 14.80337],
                        [120.55397, 14.80415],
                        [120.5545, 14.80675],
                        [120.55592, 14.80886],
                        [120.55479, 14.81108],
                        [120.55105, 14.81519],
                        [120.5454, 14.81747],
                        [120.54173, 14.82042],
                        [120.54233, 14.82113],
                        [120.54823, 14.81727],
                        [120.55195, 14.8175],
                        [120.55426, 14.82074],
                        [120.54954, 14.82232],
                        [120.53744, 14.82847],
                        [120.53377, 14.83129],
                        [120.52996, 14.83246],
                        [120.52881, 14.83177],
                        [120.52733, 14.82899],
                        [120.52003, 14.82339],
                        [120.51611, 14.82159],
                        [120.51275, 14.82055],
                        [120.50904, 14.82018],
                        [120.50748, 14.81719],
                        [120.50512, 14.81591],
                        [120.50365, 14.81211],
                        [120.5005, 14.81212],
                        [120.49373, 14.81512],
                        [120.49296, 14.81262],
                        [120.4883, 14.81203],
                        [120.48825, 14.80898],
                        [120.48554, 14.80936],
                        [120.48266, 14.80708],
                        [120.47185, 14.80538],
                        [120.46144, 14.80603],
                        [120.45404, 14.80627],
                        [120.45192, 14.80361],
                        [120.45137, 14.80095],
                        [120.44762, 14.79978],
                        [120.44706, 14.79752],
                        [120.44429, 14.79545],
                        [120.44393, 14.79184],
                        [120.44105, 14.78867],
                        [120.44141, 14.7838],
                        [120.44031, 14.78189],
                        [120.43858, 14.78091],
                        [120.43775, 14.77908],
                        [120.43798, 14.77694],
                        [120.4352, 14.77521],
                        [120.43569, 14.77218],
                        [120.43259, 14.77035],
                        [120.43268, 14.76777],
                        [120.43065, 14.76531],
                        [120.43029, 14.76204],
                        [120.42776, 14.7603],
                        [120.42471, 14.76147],
                        [120.41948, 14.76105],
                        [120.4171, 14.75895],
                        [120.41603, 14.75686],
                        [120.41198, 14.75726],
                        [120.40752, 14.75425],
                        [120.4047, 14.75115],
                        [120.40213, 14.75136],
                        [120.40042, 14.75042],
                        [120.40031, 14.74899],
                        [120.39561, 14.74455],
                        [120.40859, 14.74427],
                        [120.41176, 14.74196],
                        [120.41549, 14.74213],
                        [120.41797, 14.74319],
                        [120.42257, 14.74343],
                        [120.42508, 14.7443],
                        [120.42552, 14.74545],
                        [120.43095, 14.74998],
                        [120.43369, 14.74887],
                        [120.43596, 14.75021],
                        [120.43693, 14.75226],
                        [120.43967, 14.75206],
                        [120.44269, 14.75355],
                        [120.44485, 14.75326],
                        [120.44797, 14.75525],
                        [120.44631, 14.75719],
                        [120.44827, 14.75858],
                        [120.45103, 14.75881],
                        [120.45177, 14.76078],
                        [120.45389, 14.76213],
                        [120.46074, 14.76803],
                        [120.46606, 14.76774],
                        [120.46872, 14.7684],
                        [120.46973, 14.76987],
                        [120.47286, 14.77096],
                        [120.47504, 14.77475],
                        [120.47905, 14.77676],
                        [120.48059, 14.77995],
                        [120.48012, 14.78111],
                        [120.4837, 14.78236],
                        [120.48439, 14.78416],
                        [120.49164, 14.78657],
                        [120.4986, 14.78561],
                        [120.50278, 14.78684],
                        [120.50485, 14.78847],
                        [120.50906, 14.78966],
                        [120.51263, 14.789],
                        [120.5146, 14.78956],
                        [120.51654, 14.7885],
                        [120.51845, 14.78931],
                        [120.5229, 14.78952],
                        [120.52445, 14.7881],
                        [120.53244, 14.78719],
                        [120.53285, 14.78606],
                        [120.54009, 14.78587],
                        [120.54093, 14.78378],
                        [120.54472, 14.78454],
                        [120.54723, 14.78617]
                    ]
                ]
            },
            "properties": { "psgc": "0300809000", "municipality": "orani" }
        },
        {
            "type": "Feature",
            "geometry": {
                "type": "Polygon",
                "coordinates": [
                    [
                        [120.59268, 14.58129],
                        [120.59083, 14.58604],
                        [120.58928, 14.58618],
                        [120.58742, 14.58959],
                        [120.58855, 14.59114],
                        [120.58712, 14.59306],
                        [120.58634, 14.59959],
                        [120.58635, 14.60474],
                        [120.58595, 14.60789],
                        [120.58605, 14.61385],
                        [120.58445, 14.61628],
                        [120.58447, 14.61987],
                        [120.58577, 14.62006],
                        [120.58646, 14.62301],
                        [120.58632, 14.62556],
                        [120.58545, 14.62622],
                        [120.58475, 14.63033],
                        [120.58531, 14.63218],
                        [120.58411, 14.63962],
                        [120.5841, 14.64316],
                        [120.58228, 14.6444],
                        [120.58281, 14.64558],
                        [120.58095, 14.65115],
                        [120.57801, 14.65692],
                        [120.57775, 14.65817],
                        [120.57012, 14.65467],
                        [120.56844, 14.65344],
                        [120.56799, 14.65173],
                        [120.56527, 14.65139],
                        [120.56537, 14.65015],
                        [120.56185, 14.64794],
                        [120.56271, 14.64578],
                        [120.56253, 14.64341],
                        [120.55905, 14.64139],
                        [120.55725, 14.64115],
                        [120.55299, 14.63913],
                        [120.55241, 14.63724],
                        [120.54768, 14.63552],
                        [120.5459, 14.63586],
                        [120.54439, 14.63439],
                        [120.5454, 14.63248],
                        [120.54382, 14.63044],
                        [120.54235, 14.63135],
                        [120.53961, 14.62998],
                        [120.53889, 14.6308],
                        [120.53599, 14.63028],
                        [120.5332, 14.63115],
                        [120.53004, 14.6311],
                        [120.52766, 14.6274],
                        [120.52414, 14.62654],
                        [120.52282, 14.6254],
                        [120.52238, 14.62208],
                        [120.52497, 14.62083],
                        [120.52389, 14.61893],
                        [120.52482, 14.61632],
                        [120.52405, 14.61381],
                        [120.52454, 14.61115],
                        [120.52355, 14.61033],
                        [120.52548, 14.60658],
                        [120.52273, 14.60352],
                        [120.52083, 14.60398],
                        [120.5177, 14.60108],
                        [120.51748, 14.59926],
                        [120.51603, 14.59638],
                        [120.51471, 14.59572],
                        [120.51233, 14.5927],
                        [120.51246, 14.59022],
                        [120.50989, 14.58563],
                        [120.50995, 14.58317],
                        [120.50547, 14.58298],
                        [120.50045, 14.58361],
                        [120.49574, 14.58464],
                        [120.47658, 14.59529],
                        [120.47274, 14.60008],
                        [120.46904, 14.6016],
                        [120.46406, 14.60364],
                        [120.46261, 14.60006],
                        [120.46347, 14.59456],
                        [120.4619, 14.5887],
                        [120.46168, 14.5815],
                        [120.46416, 14.57836],
                        [120.465, 14.57612],
                        [120.46426, 14.57353],
                        [120.46506, 14.56907],
                        [120.47225, 14.56182],
                        [120.47706, 14.55845],
                        [120.47685, 14.55608],
                        [120.47846, 14.55231],
                        [120.47967, 14.55094],
                        [120.4797, 14.54873],
                        [120.48067, 14.5473],
                        [120.47889, 14.54365],
                        [120.47679, 14.54193],
                        [120.47633, 14.53914],
                        [120.48051, 14.53999],
                        [120.49358, 14.53992],
                        [120.49825, 14.54073],
                        [120.51726, 14.5418],
                        [120.52223, 14.54609],
                        [120.52362, 14.54831],
                        [120.52609, 14.55064],
                        [120.53228, 14.55307],
                        [120.53492, 14.55478],
                        [120.54382, 14.55595],
                        [120.55182, 14.55899],
                        [120.55103, 14.56233],
                        [120.55744, 14.56426],
                        [120.5577, 14.56711],
                        [120.56029, 14.56816],
                        [120.56207, 14.56777],
                        [120.56368, 14.5696],
                        [120.56398, 14.57205],
                        [120.56584, 14.57528],
                        [120.5686, 14.57542],
                        [120.57376, 14.57778],
                        [120.59268, 14.58129]
                    ]
                ]
            },
            "properties": { "psgc": "0300810000", "municipality": "orion" }
        },
        {
            "type": "Feature",
            "geometry": {
                "type": "Polygon",
                "coordinates": [
                    [
                        [120.57775, 14.65817],
                        [120.57499, 14.66319],
                        [120.5725, 14.66635],
                        [120.57082, 14.66771],
                        [120.5705, 14.66983],
                        [120.56927, 14.67178],
                        [120.56765, 14.67725],
                        [120.56668, 14.67927],
                        [120.56643, 14.68467],
                        [120.56581, 14.68687],
                        [120.56648, 14.68945],
                        [120.56478, 14.69111],
                        [120.56341, 14.69112],
                        [120.55912, 14.68898],
                        [120.55677, 14.68668],
                        [120.55036, 14.68586],
                        [120.54867, 14.68008],
                        [120.54446, 14.67689],
                        [120.54396, 14.67529],
                        [120.54663, 14.67279],
                        [120.54726, 14.67078],
                        [120.54911, 14.66885],
                        [120.5495, 14.66723],
                        [120.54776, 14.66303],
                        [120.54373, 14.66194],
                        [120.541, 14.66049],
                        [120.53775, 14.66061],
                        [120.53639, 14.65795],
                        [120.53769, 14.65387],
                        [120.53744, 14.6526],
                        [120.53462, 14.65111],
                        [120.53669, 14.64811],
                        [120.53622, 14.6445],
                        [120.53318, 14.64373],
                        [120.53006, 14.63873],
                        [120.52704, 14.63863],
                        [120.52352, 14.63628],
                        [120.52142, 14.63552],
                        [120.51791, 14.63592],
                        [120.51664, 14.63541],
                        [120.51347, 14.63679],
                        [120.51254, 14.63808],
                        [120.51063, 14.63743],
                        [120.50705, 14.63418],
                        [120.50503, 14.63695],
                        [120.50175, 14.63714],
                        [120.49819, 14.63983],
                        [120.48959, 14.63968],
                        [120.48504, 14.63699],
                        [120.48359, 14.63836],
                        [120.4793, 14.63618],
                        [120.47677, 14.63249],
                        [120.47654, 14.63115],
                        [120.47334, 14.62672],
                        [120.47246, 14.62297],
                        [120.47349, 14.61885],
                        [120.47237, 14.61765],
                        [120.4722, 14.61549],
                        [120.4733, 14.61405],
                        [120.47266, 14.61161],
                        [120.47282, 14.60875],
                        [120.47358, 14.60716],
                        [120.47128, 14.60496],
                        [120.46904, 14.6016],
                        [120.47274, 14.60008],
                        [120.47658, 14.59529],
                        [120.49574, 14.58464],
                        [120.50045, 14.58361],
                        [120.50547, 14.58298],
                        [120.50995, 14.58317],
                        [120.50989, 14.58563],
                        [120.51246, 14.59022],
                        [120.51233, 14.5927],
                        [120.51471, 14.59572],
                        [120.51603, 14.59638],
                        [120.51748, 14.59926],
                        [120.5177, 14.60108],
                        [120.52083, 14.60398],
                        [120.52273, 14.60352],
                        [120.52548, 14.60658],
                        [120.52355, 14.61033],
                        [120.52454, 14.61115],
                        [120.52405, 14.61381],
                        [120.52482, 14.61632],
                        [120.52389, 14.61893],
                        [120.52497, 14.62083],
                        [120.52238, 14.62208],
                        [120.52282, 14.6254],
                        [120.52414, 14.62654],
                        [120.52766, 14.6274],
                        [120.53004, 14.6311],
                        [120.5332, 14.63115],
                        [120.53599, 14.63028],
                        [120.53889, 14.6308],
                        [120.53961, 14.62998],
                        [120.54235, 14.63135],
                        [120.54382, 14.63044],
                        [120.5454, 14.63248],
                        [120.54439, 14.63439],
                        [120.5459, 14.63586],
                        [120.54768, 14.63552],
                        [120.55241, 14.63724],
                        [120.55299, 14.63913],
                        [120.55725, 14.64115],
                        [120.55905, 14.64139],
                        [120.56253, 14.64341],
                        [120.56271, 14.64578],
                        [120.56185, 14.64794],
                        [120.56537, 14.65015],
                        [120.56527, 14.65139],
                        [120.56799, 14.65173],
                        [120.56844, 14.65344],
                        [120.57012, 14.65467],
                        [120.57775, 14.65817]
                    ]
                ]
            },
            "properties": { "psgc": "0300811000", "municipality": "pilar" }
        },
        {
            "type": "Feature",
            "geometry": {
                "type": "Polygon",
                "coordinates": [
                    [
                        [120.54723, 14.78617],
                        [120.54472, 14.78454],
                        [120.54093, 14.78378],
                        [120.54009, 14.78587],
                        [120.53285, 14.78606],
                        [120.53244, 14.78719],
                        [120.52445, 14.7881],
                        [120.5229, 14.78952],
                        [120.51845, 14.78931],
                        [120.51654, 14.7885],
                        [120.5146, 14.78956],
                        [120.51263, 14.789],
                        [120.50906, 14.78966],
                        [120.50485, 14.78847],
                        [120.50278, 14.78684],
                        [120.4986, 14.78561],
                        [120.49164, 14.78657],
                        [120.48439, 14.78416],
                        [120.4837, 14.78236],
                        [120.48012, 14.78111],
                        [120.48059, 14.77995],
                        [120.47905, 14.77676],
                        [120.47504, 14.77475],
                        [120.47286, 14.77096],
                        [120.46973, 14.76987],
                        [120.46872, 14.7684],
                        [120.46606, 14.76774],
                        [120.46074, 14.76803],
                        [120.45389, 14.76213],
                        [120.45177, 14.76078],
                        [120.45103, 14.75881],
                        [120.44827, 14.75858],
                        [120.44631, 14.75719],
                        [120.44797, 14.75525],
                        [120.44485, 14.75326],
                        [120.44269, 14.75355],
                        [120.43967, 14.75206],
                        [120.43693, 14.75226],
                        [120.43596, 14.75021],
                        [120.43369, 14.74887],
                        [120.43095, 14.74998],
                        [120.42552, 14.74545],
                        [120.42508, 14.7443],
                        [120.42257, 14.74343],
                        [120.41998, 14.74074],
                        [120.41713, 14.73902],
                        [120.4127, 14.732],
                        [120.40978, 14.72897],
                        [120.40874, 14.72629],
                        [120.40032, 14.7118],
                        [120.4179, 14.71665],
                        [120.4235, 14.72214],
                        [120.42613, 14.72623],
                        [120.43, 14.73071],
                        [120.43463, 14.73169],
                        [120.4361, 14.73463],
                        [120.43844, 14.73578],
                        [120.4398, 14.73842],
                        [120.44156, 14.7377],
                        [120.44361, 14.73882],
                        [120.44469, 14.74113],
                        [120.44751, 14.74102],
                        [120.45148, 14.74329],
                        [120.45742, 14.743],
                        [120.45948, 14.74217],
                        [120.46279, 14.74334],
                        [120.46714, 14.74266],
                        [120.4689, 14.7438],
                        [120.47089, 14.74309],
                        [120.47632, 14.74423],
                        [120.47692, 14.74619],
                        [120.48086, 14.74722],
                        [120.48335, 14.74952],
                        [120.48318, 14.75211],
                        [120.48633, 14.75288],
                        [120.48769, 14.75482],
                        [120.49109, 14.75362],
                        [120.4923, 14.75455],
                        [120.49477, 14.75453],
                        [120.49763, 14.75741],
                        [120.49891, 14.75598],
                        [120.50321, 14.75593],
                        [120.50595, 14.75674],
                        [120.50955, 14.75713],
                        [120.51141, 14.75598],
                        [120.51305, 14.7566],
                        [120.51902, 14.75645],
                        [120.52091, 14.7539],
                        [120.52336, 14.75266],
                        [120.52774, 14.75231],
                        [120.54295, 14.74406],
                        [120.54645, 14.74175],
                        [120.54913, 14.74075],
                        [120.55043, 14.7441],
                        [120.55361, 14.74712],
                        [120.5552, 14.74964],
                        [120.55465, 14.75175],
                        [120.55297, 14.75439],
                        [120.55201, 14.75429],
                        [120.55042, 14.75851],
                        [120.54939, 14.76589],
                        [120.55025, 14.77113],
                        [120.55003, 14.77328],
                        [120.54823, 14.77467],
                        [120.54751, 14.77643],
                        [120.55125, 14.77707],
                        [120.55117, 14.78015],
                        [120.54928, 14.78052],
                        [120.54723, 14.78617]
                    ]
                ]
            },
            "properties": { "psgc": "0300812000", "municipality": "samal" }
        }
    ]
}
